ONEWEB-0205             
1 48226U 21031S   24139.86284564 -.00000466  00000+0 -12921-2 0  9995
2 48226  87.8955  80.7765 0002189  76.2837 283.8537 13.14502887148527
ONEWEB-0206             
1 48227U 21031T   24139.53142459  .00000169  00000+0  42215-3 0  9994
2 48227  87.8955  80.8330 0002078  74.0953 286.0405 13.14500358148428
ONEWEB-0182             
1 48228U 21031U   24139.60278336  .00000180  00000+0  45202-3 0  9999
2 48228  87.8960  80.8447 0001847  78.3784 281.7553 13.14505470148646
ONEWEB-0186             
1 48229U 21031V   24139.53776504  .00000095  00000+0  22194-3 0  9992
2 48229  87.8957  80.8218 0002121  81.1878 278.9492 13.14500692148596
ONEWEB-0181             
1 48230U 21031W   24139.82003779  .00000189  00000+0  47514-3 0  9990
2 48230  87.8956  80.8351 0002207  82.0396 278.0984 13.14505386148485
ONEWEB-0188             
1 48231U 21031X   24139.85808867 -.00000159  00000+0 -46382-3 0  9996
2 48231  87.8958  80.8231 0002075  79.0675 281.0688 13.14500660148388
ONEWEB-0220             
1 48232U 21031Y   24139.82162560  .00000196  00000+0  49409-3 0  9999
2 48232  87.8950  80.7970 0002197  71.8016 288.3353 13.14505819148643
ONEWEB-0165             
1 48233U 21031Z   24139.85017168 -.00000047  00000+0 -16186-3 0  9999
2 48233  87.8956  80.8060 0002222  78.7949 281.3430 13.14502859148607
